[
    {
        "Altitude(m)": 568642.9469448078,
        "Argument of Periapsis(deg)": -0.007534386927657468,
        "Eccentricity": 0.0,
        "Inclination(deg)": 97.0,
        "Latitude(deg)": 37.52873389978485,
        "Longitude(deg)": -155.37888634347237,
        "Mean Anomaly(deg)": 142.22884775639582,
        "RAAN(deg)": 120.00198235120617,
        "Satellite Name": "Starlink Shell 3 1837",
        "Satellite Number": 1837,
        "Semi-Major Axis(m)": 6938478.169268562,
        "Time(s)": 190
    },
    {
        "Altitude(m)": 568518.039568454,
        "Argument of Periapsis(deg)": -0.007930933608060494,
        "Eccentricity": 0.0,
        "Inclination(deg)": 97.0,
        "Latitude(deg)": 36.90912313818792,
        "Longitude(deg)": -155.54040036652248,
        "Mean Anomaly(deg)": 142.8543239541009,
        "RAAN(deg)": 120.00208668548017,
        "Satellite Name": "Starlink Shell 3 1837",
        "Satellite Number": 1837,
        "Semi-Major Axis(m)": 6938478.169268562,
        "Time(s)": 200
    },
    {
        "Altitude(m)": 568394.8197402584,
        "Argument of Periapsis(deg)": -0.008327480288463517,
        "Eccentricity": 0.0,
        "Inclination(deg)": 97.0,
        "Latitude(deg)": 36.2893232569063,
        "Longitude(deg)": -155.6999962678848,
        "Mean Anomaly(deg)": 143.47980015180593,
        "RAAN(deg)": 120.00219101975418,
        "Satellite Name": "Starlink Shell 3 1837",
        "Satellite Number": 1837,
        "Semi-Major Axis(m)": 6938478.169268562,
        "Time(s)": 210
    },
    {
        "Altitude(m)": 568273.3699167556,
        "Argument of Periapsis(deg)": -0.008724026968866542,
        "Eccentricity": 0.0,
        "Inclination(deg)": 97.0,
        "Latitude(deg)": 35.66933931260686,
        "Longitude(deg)": -155.8577463814837,
        "Mean Anomaly(deg)": 144.10527634951097,
        "RAAN(deg)": 120.00229535402818,
        "Satellite Name": "Starlink Shell 3 1837",
        "Satellite Number": 1837,
        "Semi-Major Axis(m)": 6938478.169268562,
        "Time(s)": 220
    },
    {
        "Altitude(m)": 568153.7719176044,
        "Argument of Periapsis(deg)": -0.009120573649269567,
        "Eccentricity": 0.0,
        "Inclination(deg)": 97.0,
        "Latitude(deg)": 35.0491762112682,
        "Longitude(deg)": -156.01371999227825,
        "Mean Anomaly(deg)": 144.730752547216,
        "RAAN(deg)": 120.0023996883022,
        "Satellite Name": "Starlink Shell 3 1837",
        "Satellite Number": 1837,
        "Semi-Major Axis(m)": 6938478.169268562,
        "Time(s)": 230
    },
    {
        "Altitude(m)": 568036.1068828523,
        "Argument of Periapsis(deg)": -0.009517120329672592,
        "Eccentricity": 0.0,
        "Inclination(deg)": 97.0,
        "Latitude(deg)": 34.428838718579165,
        "Longitude(deg)": -156.16798300202396,
        "Mean Anomaly(deg)": 145.35622874492105,
        "RAAN(deg)": 120.0025040225762,
        "Satellite Name": "Starlink Shell 3 1837",
        "Satellite Number": 1837,
        "Semi-Major Axis(m)": 6938478.169268562,
        "Time(s)": 240
    },
    {
        "Altitude(m)": 567920.4552304432,
        "Argument of Periapsis(deg)": -0.009913667010075618,
        "Eccentricity": 0.0,
        "Inclination(deg)": 97.0,
        "Latitude(deg)": 33.80833146963323,
        "Longitude(deg)": -156.32059909705097,
        "Mean Anomaly(deg)": 145.9817049426261,
        "RAAN(deg)": 120.00260835685022,
        "Satellite Name": "Starlink Shell 3 1837",
        "Satellite Number": 1837,
        "Semi-Major Axis(m)": 6938478.169268562,
        "Time(s)": 250
    },
    {
        "Altitude(m)": 567806.8966140304,
        "Argument of Periapsis(deg)": -0.010310213690478642,
        "Eccentricity": 0.0,
        "Inclination(deg)": 97.0,
        "Latitude(deg)": 33.18765897796521,
        "Longitude(deg)": -156.47162939312065,
        "Mean Anomaly(deg)": 146.60718114033116,
        "RAAN(deg)": 120.00271269112422,
        "Satellite Name": "Starlink Shell 3 1837",
        "Satellite Number": 1837,
        "Semi-Major Axis(m)": 6938478.169268562,
        "Time(s)": 260
    },
    {
        "Altitude(m)": 567695.5098810316,
        "Argument of Periapsis(deg)": -0.010706760370881667,
        "Eccentricity": 0.0,
        "Inclination(deg)": 97.0,
        "Latitude(deg)": 32.566825643979946,
        "Longitude(deg)": -156.62113207097224,
        "Mean Anomaly(deg)": 147.2326573380362,
        "RAAN(deg)": 120.00281702539824,
        "Satellite Name": "Starlink Shell 3 1837",
        "Satellite Number": 1837,
        "Semi-Major Axis(m)": 6938478.169268562,
        "Time(s)": 270
    },
    {
        "Altitude(m)": 567586.3730310891,
        "Argument of Periapsis(deg)": -0.011103307051284692,
        "Eccentricity": 0.0,
        "Inclination(deg)": 97.0,
        "Latitude(deg)": 31.94583576282001,
        "Longitude(deg)": -156.7691635161125,
        "Mean Anomaly(deg)": 147.85813353574125,
        "RAAN(deg)": 120.00292135967224,
        "Satellite Name": "Starlink Shell 3 1837",
        "Satellite Number": 1837,
        "Semi-Major Axis(m)": 6938478.169268562,
        "Time(s)": 280
    },
    {
        "Altitude(m)": 567479.5631748281,
        "Argument of Periapsis(deg)": -0.011499853731687715,
        "Eccentricity": 0.0,
        "Inclination(deg)": 97.0,
        "Latitude(deg)": 31.324693531705734,
        "Longitude(deg)": -156.91577793772655,
        "Mean Anomaly(deg)": 148.4836097334463,
        "RAAN(deg)": 120.00302569394627,
        "Satellite Name": "Starlink Shell 3 1837",
        "Satellite Number": 1837,
        "Semi-Major Axis(m)": 6938478.169268562,
        "Time(s)": 290
    },
    {
        "Altitude(m)": 567375.156493002,
        "Argument of Periapsis(deg)": -0.011896400412090741,
        "Eccentricity": 0.0,
        "Inclination(deg)": 97.0,
        "Latitude(deg)": 30.703403056787756,
        "Longitude(deg)": -157.061026980155,
        "Mean Anomaly(deg)": 149.1090859311513,
        "RAAN(deg)": 120.00313002822024,
        "Satellite Name": "Starlink Shell 3 1837",
        "Satellite Number": 1837,
        "Semi-Major Axis(m)": 6938478.169268562,
        "Time(s)": 300
    },
    {
        "Altitude(m)": 567273.2281960204,
        "Argument of Periapsis(deg)": -0.012292947092493765,
        "Eccentricity": 0.0,
        "Inclination(deg)": 97.0,
        "Latitude(deg)": 30.081968359548075,
        "Longitude(deg)": -157.20496084034002,
        "Mean Anomaly(deg)": 149.73456212885634,
        "RAAN(deg)": 120.00323436249427,
        "Satellite Name": "Starlink Shell 3 1837",
        "Satellite Number": 1837,
        "Semi-Major Axis(m)": 6938478.169268562,
        "Time(s)": 310
    },
    {
        "Altitude(m)": 567173.852483915,
        "Argument of Periapsis(deg)": -0.012689493772896788,
        "Eccentricity": 0.0,
        "Inclination(deg)": 97.0,
        "Latitude(deg)": 29.460393382775905,
        "Longitude(deg)": -157.34762786597972,
        "Mean Anomaly(deg)": 150.36003832656138,
        "RAAN(deg)": 120.00333869676827,
        "Satellite Name": "Starlink Shell 3 1837",
        "Satellite Number": 1837,
        "Semi-Major Axis(m)": 6938478.169268562,
        "Time(s)": 320
    },
    {
        "Altitude(m)": 567077.1025067195,
        "Argument of Periapsis(deg)": -0.013086040453299813,
        "Eccentricity": 0.0,
        "Inclination(deg)": 97.0,
        "Latitude(deg)": 28.838681996148313,
        "Longitude(deg)": -157.48907414771168,
        "Mean Anomaly(deg)": 150.9855145242664,
        "RAAN(deg)": 120.00344303104228,
        "Satellite Name": "Starlink Shell 3 1837",
        "Satellite Number": 1837,
        "Semi-Major Axis(m)": 6938478.169268562,
        "Time(s)": 330
    },
    {
        "Altitude(m)": 566983.0503253139,
        "Argument of Periapsis(deg)": -0.01348258713370284,
        "Eccentricity": 0.0,
        "Inclination(deg)": 97.0,
        "Latitude(deg)": 28.216838001445993,
        "Longitude(deg)": -157.62934461861286,
        "Mean Anomaly(deg)": 151.6109907219715,
        "RAAN(deg)": 120.00354736531628,
        "Satellite Name": "Starlink Shell 3 1837",
        "Satellite Number": 1837,
        "Semi-Major Axis(m)": 6938478.169268562,
        "Time(s)": 340
    },
    {
        "Altitude(m)": 566891.766872763,
        "Argument of Periapsis(deg)": -0.013879133814105863,
        "Eccentricity": 0.0,
        "Inclination(deg)": 97.0,
        "Latitude(deg)": 27.59486513742284,
        "Longitude(deg)": -157.76848263565097,
        "Mean Anomaly(deg)": 152.23646691967653,
        "RAAN(deg)": 120.0036516995903,
        "Satellite Name": "Starlink Shell 3 1837",
        "Satellite Number": 1837,
        "Semi-Major Axis(m)": 6938478.169268562,
        "Time(s)": 350
    },
    {
        "Altitude(m)": 566803.3219161266,
        "Argument of Periapsis(deg)": -0.01427568049450889,
        "Eccentricity": 0.0,
        "Inclination(deg)": 97.0,
        "Latitude(deg)": 26.972767084353805,
        "Longitude(deg)": -157.90652955631376,
        "Mean Anomaly(deg)": 152.86194311738157,
        "RAAN(deg)": 120.0037560338643,
        "Satellite Name": "Starlink Shell 3 1837",
        "Satellite Number": 1837,
        "Semi-Major Axis(m)": 6938478.169268562,
        "Time(s)": 360
    },
    {
        "Altitude(m)": 566717.7840188291,
        "Argument of Periapsis(deg)": -0.014672227174911913,
        "Eccentricity": 0.0,
        "Inclination(deg)": 97.0,
        "Latitude(deg)": 26.350547468285704,
        "Longitude(deg)": -158.0435258236151,
        "Mean Anomaly(deg)": 153.4874193150866,
        "RAAN(deg)": 120.00386036813833,
        "Satellite Name": "Starlink Shell 3 1837",
        "Satellite Number": 1837,
        "Semi-Major Axis(m)": 6938478.169268562,
        "Time(s)": 370
    }
]